[
    {
        "Altitude(m)": 560893.8880709992,
        "Argument of Periapsis(deg)": 0.0,
        "Eccentricity": 0.0,
        "Inclination(deg)": 53.0,
        "Latitude(deg)": -25.77627959747941,
        "Longitude(deg)": 138.8132584381296,
        "Mean Anomaly(deg)": -32.72729999999996,
        "RAAN(deg)": 260.0,
        "Satellite Name": "Starlink Shell 1 1164",
        "Satellite Number": 1164,
        "Semi-Major Axis(m)": 6931778.249405717,
        "Time(s)": 0
    },
    {
        "Altitude(m)": 560723.2789478641,
        "Argument of Periapsis(deg)": 0.00034857847951123687,
        "Eccentricity": 0.0,
        "Inclination(deg)": 53.0,
        "Latitude(deg)": -25.307319951373106,
        "Longitude(deg)": 139.23335228039693,
        "Mean Anomaly(deg)": -32.100468796443295,
        "RAAN(deg)": 259.99948122992254,
        "Satellite Name": "Starlink Shell 1 1164",
        "Satellite Number": 1164,
        "Semi-Major Axis(m)": 6931778.249405717,
        "Time(s)": 10
    },
    {
        "Altitude(m)": 560553.4846610085,
        "Argument of Periapsis(deg)": 0.0006971569590224737,
        "Eccentricity": 0.0,
        "Inclination(deg)": 53.0,
        "Latitude(deg)": -24.836883670352204,
        "Longitude(deg)": 139.64991950271482,
        "Mean Anomaly(deg)": -31.47363759288657,
        "RAAN(deg)": 259.9989624598451,
        "Satellite Name": "Starlink Shell 1 1164",
        "Satellite Number": 1164,
        "Semi-Major Axis(m)": 6931778.249405717,
        "Time(s)": 20
    },
    {
        "Altitude(m)": 560384.5668146913,
        "Argument of Periapsis(deg)": 0.0010457354385337105,
        "Eccentricity": 0.0,
        "Inclination(deg)": 53.0,
        "Latitude(deg)": -24.36501170557079,
        "Longitude(deg)": 140.06305050457317,
        "Mean Anomaly(deg)": -30.84680638932987,
        "RAAN(deg)": 259.9984436897676,
        "Satellite Name": "Starlink Shell 1 1164",
        "Satellite Number": 1164,
        "Semi-Major Axis(m)": 6931778.249405717,
        "Time(s)": 30
    },
    {
        "Altitude(m)": 560216.5864741873,
        "Argument of Periapsis(deg)": 0.0013943139180449475,
        "Eccentricity": 0.0,
        "Inclination(deg)": 53.0,
        "Latitude(deg)": -23.891744180853042,
        "Longitude(deg)": 140.47283494575072,
        "Mean Anomaly(deg)": -30.219975185773126,
        "RAAN(deg)": 259.9979249196901,
        "Satellite Name": "Starlink Shell 1 1164",
        "Satellite Number": 1164,
        "Semi-Major Axis(m)": 6931778.249405717,
        "Time(s)": 40
    },
    {
        "Altitude(m)": 560049.604138446,
        "Argument of Periapsis(deg)": 0.0017428923975561844,
        "Eccentricity": 0.0,
        "Inclination(deg)": 53.0,
        "Latitude(deg)": -23.41712041853956,
        "Longitude(deg)": 140.879360753289,
        "Mean Anomaly(deg)": -29.59314398221648,
        "RAAN(deg)": 259.9974061496127,
        "Satellite Name": "Starlink Shell 1 1164",
        "Satellite Number": 1164,
        "Semi-Major Axis(m)": 6931778.249405717,
        "Time(s)": 50
    },
    {
        "Altitude(m)": 559883.6797129624,
        "Argument of Periapsis(deg)": 0.002091470877067421,
        "Eccentricity": 0.0,
        "Inclination(deg)": 53.0,
        "Latitude(deg)": -22.94117896481502,
        "Longitude(deg)": 141.2827146427359,
        "Mean Anomaly(deg)": -28.966312778659788,
        "RAAN(deg)": 259.99688737953517,
        "Satellite Name": "Starlink Shell 1 1164",
        "Satellite Number": 1164,
        "Semi-Major Axis(m)": 6931778.249405717,
        "Time(s)": 60
    },
    {
        "Altitude(m)": 559718.8724829729,
        "Argument of Periapsis(deg)": 0.0024400493565786582,
        "Eccentricity": 0.0,
        "Inclination(deg)": 53.0,
        "Latitude(deg)": -22.463957614519046,
        "Longitude(deg)": 141.68298264064958,
        "Mean Anomaly(deg)": -28.339481575102937,
        "RAAN(deg)": 259.9963686094577,
        "Satellite Name": "Starlink Shell 1 1164",
        "Satellite Number": 1164,
        "Semi-Major Axis(m)": 6931778.249405717,
        "Time(s)": 70
    },
    {
        "Altitude(m)": 559555.2410869212,
        "Argument of Periapsis(deg)": 0.002788627836089895,
        "Eccentricity": 0.0,
        "Inclination(deg)": 53.0,
        "Latitude(deg)": -21.98549343543908,
        "Longitude(deg)": 142.080249095366,
        "Mean Anomaly(deg)": -27.712650371546296,
        "RAAN(deg)": 259.99584983938024,
        "Satellite Name": "Starlink Shell 1 1164",
        "Satellite Number": 1164,
        "Semi-Major Axis(m)": 6931778.249405717,
        "Time(s)": 80
    },
    {
        "Altitude(m)": 559392.843490212,
        "Argument of Periapsis(deg)": 0.0031372063156011316,
        "Eccentricity": 0.0,
        "Inclination(deg)": 53.0,
        "Latitude(deg)": -21.50582279209211,
        "Longitude(deg)": 142.47459720166043,
        "Mean Anomaly(deg)": -27.085819167989648,
        "RAAN(deg)": 259.9953310693028,
        "Satellite Name": "Starlink Shell 1 1164",
        "Satellite Number": 1164,
        "Semi-Major Axis(m)": 6931778.249405717,
        "Time(s)": 90
    },
    {
        "Altitude(m)": 559231.7369593375,
        "Argument of Periapsis(deg)": 0.0034857847951123688,
        "Eccentricity": 0.0,
        "Inclination(deg)": 53.0,
        "Latitude(deg)": -21.02498136900094,
        "Longitude(deg)": 142.86610952632216,
        "Mean Anomaly(deg)": -26.45898796443285,
        "RAAN(deg)": 259.99481229922526,
        "Satellite Name": "Starlink Shell 1 1164",
        "Satellite Number": 1164,
        "Semi-Major Axis(m)": 6931778.249405717,
        "Time(s)": 100
    },
    {
        "Altitude(m)": 559071.9780362688,
        "Argument of Periapsis(deg)": 0.003834363274623606,
        "Eccentricity": 0.0,
        "Inclination(deg)": 53.0,
        "Latitude(deg)": -20.543004193466988,
        "Longitude(deg)": 143.25486702167134,
        "Mean Anomaly(deg)": -25.832156760876106,
        "RAAN(deg)": 259.9942935291478,
        "Satellite Name": "Starlink Shell 1 1164",
        "Satellite Number": 1164,
        "Semi-Major Axis(m)": 6931778.249405717,
        "Time(s)": 110
    },
    {
        "Altitude(m)": 558913.6225132404,
        "Argument of Periapsis(deg)": 0.004182941754134842,
        "Eccentricity": 0.0,
        "Inclination(deg)": 53.0,
        "Latitude(deg)": -20.05992565785063,
        "Longitude(deg)": 143.64094955267254,
        "Mean Anomaly(deg)": -25.20532555731946,
        "RAAN(deg)": 259.99377475907033,
        "Satellite Name": "Starlink Shell 1 1164",
        "Satellite Number": 1164,
        "Semi-Major Axis(m)": 6931778.249405717,
        "Time(s)": 120
    },
    {
        "Altitude(m)": 558756.7254078635,
        "Argument of Periapsis(deg)": 0.004531520233646079,
        "Eccentricity": 0.0,
        "Inclination(deg)": 53.0,
        "Latitude(deg)": -19.57577954136575,
        "Longitude(deg)": 144.02443642468765,
        "Mean Anomaly(deg)": -24.578494353762764,
        "RAAN(deg)": 259.9932559889928,
        "Satellite Name": "Starlink Shell 1 1164",
        "Satellite Number": 1164,
        "Semi-Major Axis(m)": 6931778.249405717,
        "Time(s)": 130
    },
    {
        "Altitude(m)": 558601.3409386288,
        "Argument of Periapsis(deg)": 0.0048800987131573164,
        "Eccentricity": 0.0,
        "Inclination(deg)": 53.0,
        "Latitude(deg)": -19.09059903139451,
        "Longitude(deg)": 144.40540539891916,
        "Mean Anomaly(deg)": -23.951663150205967,
        "RAAN(deg)": 259.9927372189154,
        "Satellite Name": "Starlink Shell 1 1164",
        "Satellite Number": 1164,
        "Semi-Major Axis(m)": 6931778.249405717,
        "Time(s)": 140
    },
    {
        "Altitude(m)": 558447.5225007844,
        "Argument of Periapsis(deg)": 0.005228677192668553,
        "Eccentricity": 0.0,
        "Inclination(deg)": 53.0,
        "Latitude(deg)": -18.60441674433582,
        "Longitude(deg)": 144.78393322121627,
        "Mean Anomaly(deg)": -23.32483194664927,
        "RAAN(deg)": 259.99221844883795,
        "Satellite Name": "Starlink Shell 1 1164",
        "Satellite Number": 1164,
        "Semi-Major Axis(m)": 6931778.249405717,
        "Time(s)": 150
    },
    {
        "Altitude(m)": 558295.3226426045,
        "Argument of Periapsis(deg)": 0.00557725567217979,
        "Eccentricity": 0.0,
        "Inclination(deg)": 53.0,
        "Latitude(deg)": -18.117264745994113,
        "Longitude(deg)": 145.1600961513102,
        "Mean Anomaly(deg)": -22.698000743092575,
        "RAAN(deg)": 259.9916996787604,
        "Satellite Name": "Starlink Shell 1 1164",
        "Satellite Number": 1164,
        "Semi-Major Axis(m)": 6931778.249405717,
        "Time(s)": 160
    },
    {
        "Altitude(m)": 558144.7930420745,
        "Argument of Periapsis(deg)": 0.0059258341516910265,
        "Eccentricity": 0.0,
        "Inclination(deg)": 53.0,
        "Latitude(deg)": -17.629174571518263,
        "Longitude(deg)": 145.53396897954136,
        "Mean Anomaly(deg)": -22.071169539535777,
        "RAAN(deg)": 259.991180908683,
        "Satellite Name": "Starlink Shell 1 1164",
        "Satellite Number": 1164,
        "Semi-Major Axis(m)": 6931778.249405717,
        "Time(s)": 170
    },
    {
        "Altitude(m)": 557995.984483999,
        "Argument of Periapsis(deg)": 0.006274412631202263,
        "Eccentricity": 0.0,
        "Inclination(deg)": 53.0,
        "Latitude(deg)": -17.140177244904613,
        "Longitude(deg)": 145.90562555677343,
        "Mean Anomaly(deg)": -21.444338335979083,
        "RAAN(deg)": 259.9906621386055,
        "Satellite Name": "Starlink Shell 1 1164",
        "Satellite Number": 1164,
        "Semi-Major Axis(m)": 6931778.249405717,
        "Time(s)": 180
    }
]